STARLINK-30268          
1 57531U 23115L   26089.13439254  .00012884  00000+0  47703-3 0  9995
2 57531  43.0012 246.5196 0001351 267.5788  92.4909 15.27569941145472
STARLINK-30251          
1 57532U 23115M   26089.15222561  .00002378  00000+0  95943-4 0  9996
2 57532  43.0036 245.7998 0001037 277.8223  82.2511 15.27566671145483
STARLINK-30254          
1 57533U 23115N   26089.04849554  .00000523  00000+0  28520-4 0  9999
2 57533  43.0056 348.1856 0001513 270.6603  89.4075 15.27585231148478
STARLINK-30264          
1 57534U 23115P   26089.00464021 -.00001076  00000+0 -29581-4 0  9992
2 57534  43.0031  94.1694 0001147 313.5468  46.5288 15.27580739148466
STARLINK-30166          
1 57602U 23119A   26089.05635249  .00001527  00000+0  65029-4 0  9995
2 57602  43.0054 326.3559 0002171 282.4984  77.5625 15.27581604146146
STARLINK-30223          
1 57603U 23119B   26089.01411398  .00033259  00000+0  21576-2 0  9993
2 57603  43.0017 330.2830 0003062 254.3867 105.6640 15.07510523146140
STARLINK-30218          
1 57604U 23119C   26088.93546822 -.00001642  00000+0 -51513-4 0  9994
2 57604  43.0035 327.1627 0001436 272.0376  88.0311 15.26748577146181
STARLINK-30138          
1 57605U 23119D   26088.99881756 -.00001533  00000+0 -47457-4 0  9990
2 57605  43.0022 326.7792 0001726 268.0756  91.9898 15.26739937146199
STARLINK-30255          
1 57606U 23119E   26089.05360400  .00000838  00000+0  40899-4 0  9995
2 57606  43.0070 326.3262 0001137 247.6439 112.4292 15.26746863146203
STARLINK-30252          
1 57607U 23119F   26089.03379169 -.00001834  00000+0 -57177-4 0  9992
2 57607  42.9995 311.7410 0001345 276.8178  83.2520 15.27559726146374
STARLINK-30258          
1 57608U 23119G   26089.03851433 -.00005596  00000+0 -19411-3 0  9999
2 57608  43.0016 327.0583 0000672 326.7307  33.3502 15.27559149146198
STARLINK-30174          
1 57609U 23119H   26088.91429000 -.00004053  00000+0 -14147-3 0  9995
2 57609  43.0064 327.0035 0001704 297.4285  62.6393 15.26740741146181
STARLINK-30248          
1 57610U 23119J   26089.04350026  .00001729  00000+0  72327-4 0  9993
2 57610  43.0032 326.2499 0001708 265.6236  94.4420 15.27583011146203
STARLINK-30052          
1 57611U 23119K   26089.03616239 -.00000846  00000+0 -21825-4 0  9992
2 57611  43.0058 326.1932 0002693 262.8273  97.2272 15.26745435146189
STARLINK-30245          
1 57612U 23119L   26088.97939759  .00003448  00000+0  13476-3 0  9991
2 57612  43.0052 326.6264 0001617 258.4520 101.6150 15.27583350146191
STARLINK-30041          
1 57613U 23119M   26089.05506729 -.00005358  00000+0 -18541-3 0  9991
2 57613  43.0052 326.3345 0001644 270.5947  89.4716 15.27563582146205
