[{"OBJECT_NAME":"STARLINK-30268","OBJECT_ID":"2023-115L","EPOCH":"2026-03-30T03:13:31.515456","MEAN_MOTION":15.27569941,"ECCENTRICITY":0.0001351,"INCLINATION":43.0012,"RA_OF_ASC_NODE":246.5196,"ARG_OF_PERICENTER":267.5788,"MEAN_ANOMALY":92.4909,"EPHEMERIS_TYPE":0,"CLASSIFICATION_TYPE":"U","NORAD_CAT_ID":57531,"ELEMENT_SET_NO":999,"REV_AT_EPOCH":14547,"BSTAR":0.00047703,"MEAN_MOTION_DOT":0.00012884,"MEAN_MOTION_DDOT":0},{"OBJECT_NAME":"STARLINK-30251","OBJECT_ID":"2023-115M","EPOCH":"2026-03-30T03:39:12.292704","MEAN_MOTION":15.27566671,"ECCENTRICITY":0.0001037,"INCLINATION":43.0036,"RA_OF_ASC_NODE":245.7998,"ARG_OF_PERICENTER":277.8223,"MEAN_ANOMALY":82.2511,"EPHEMERIS_TYPE":0,"CLASSIFICATION_TYPE":"U","NORAD_CAT_ID":57532,"ELEMENT_SET_NO":999,"REV_AT_EPOCH":14548,"BSTAR":9.5943e-5,"MEAN_MOTION_DOT":2.378e-5,"MEAN_MOTION_DDOT":0},{"OBJECT_NAME":"STARLINK-30254","OBJECT_ID":"2023-115N","EPOCH":"2026-03-30T01:09:50.014656","MEAN_MOTION":15.27585231,"ECCENTRICITY":0.0001513,"INCLINATION":43.0056,"RA_OF_ASC_NODE":348.1856,"ARG_OF_PERICENTER":270.6603,"MEAN_ANOMALY":89.4075,"EPHEMERIS_TYPE":0,"CLASSIFICATION_TYPE":"U","NORAD_CAT_ID":57533,"ELEMENT_SET_NO":999,"REV_AT_EPOCH":14847,"BSTAR":2.852e-5,"MEAN_MOTION_DOT":5.23e-6,"MEAN_MOTION_DDOT":0},{"OBJECT_NAME":"STARLINK-30264","OBJECT_ID":"2023-115P","EPOCH":"2026-03-30T00:06:40.914144","MEAN_MOTION":15.27580739,"ECCENTRICITY":0.0001147,"INCLINATION":43.0031,"RA_OF_ASC_NODE":94.1694,"ARG_OF_PERICENTER":313.5468,"MEAN_ANOMALY":46.5288,"EPHEMERIS_TYPE":0,"CLASSIFICATION_TYPE":"U","NORAD_CAT_ID":57534,"ELEMENT_SET_NO":999,"REV_AT_EPOCH":14846,"BSTAR":-2.9581e-5,"MEAN_MOTION_DOT":-1.076e-5,"MEAN_MOTION_DDOT":0},{"OBJECT_NAME":"STARLINK-30166","OBJECT_ID":"2023-119A","EPOCH":"2026-03-30T01:21:08.855136","MEAN_MOTION":15.27581604,"ECCENTRICITY":0.0002171,"INCLINATION":43.0054,"RA_OF_ASC_NODE":326.3559,"ARG_OF_PERICENTER":282.4984,"MEAN_ANOMALY":77.5625,"EPHEMERIS_TYPE":0,"CLASSIFICATION_TYPE":"U","NORAD_CAT_ID":57602,"ELEMENT_SET_NO":999,"REV_AT_EPOCH":14614,"BSTAR":6.5029e-5,"MEAN_MOTION_DOT":1.527e-5,"MEAN_MOTION_DDOT":0},{"OBJECT_NAME":"STARLINK-30223","OBJECT_ID":"2023-119B","EPOCH":"2026-03-30T00:20:19.447872","MEAN_MOTION":15.07510523,"ECCENTRICITY":0.0003062,"INCLINATION":43.0017,"RA_OF_ASC_NODE":330.283,"ARG_OF_PERICENTER":254.3867,"MEAN_ANOMALY":105.664,"EPHEMERIS_TYPE":0,"CLASSIFICATION_TYPE":"U","NORAD_CAT_ID":57603,"ELEMENT_SET_NO":999,"REV_AT_EPOCH":14614,"BSTAR":0.0021576,"MEAN_MOTION_DOT":0.00033259,"MEAN_MOTION_DDOT":0},{"OBJECT_NAME":"STARLINK-30218","OBJECT_ID":"2023-119C","EPOCH":"2026-03-29T22:27:04.454208","MEAN_MOTION":15.26748577,"ECCENTRICITY":0.0001436,"INCLINATION":43.0035,"RA_OF_ASC_NODE":327.1627,"ARG_OF_PERICENTER":272.0376,"MEAN_ANOMALY":88.0311,"EPHEMERIS_TYPE":0,"CLASSIFICATION_TYPE":"U","NORAD_CAT_ID":57604,"ELEMENT_SET_NO":999,"REV_AT_EPOCH":14618,"BSTAR":-5.1513e-5,"MEAN_MOTION_DOT":-1.642e-5,"MEAN_MOTION_DDOT":0},{"OBJECT_NAME":"STARLINK-30138","OBJECT_ID":"2023-119D","EPOCH":"2026-03-29T23:58:17.837184","MEAN_MOTION":15.26739937,"ECCENTRICITY":0.0001726,"INCLINATION":43.0022,"RA_OF_ASC_NODE":326.7792,"ARG_OF_PERICENTER":268.0756,"MEAN_ANOMALY":91.9898,"EPHEMERIS_TYPE":0,"CLASSIFICATION_TYPE":"U","NORAD_CAT_ID":57605,"ELEMENT_SET_NO":999,"REV_AT_EPOCH":14619,"BSTAR":-4.7457e-5,"MEAN_MOTION_DOT":-1.533e-5,"MEAN_MOTION_DDOT":0},{"OBJECT_NAME":"STARLINK-30255","OBJECT_ID":"2023-119E","EPOCH":"2026-03-30T01:17:11.385600","MEAN_MOTION":15.26746863,"ECCENTRICITY":0.0001137,"INCLINATION":43.007,"RA_OF_ASC_NODE":326.3262,"ARG_OF_PERICENTER":247.6439,"MEAN_ANOMALY":112.4292,"EPHEMERIS_TYPE":0,"CLASSIFICATION_TYPE":"U","NORAD_CAT_ID":57606,"ELEMENT_SET_NO":999,"REV_AT_EPOCH":14620,"BSTAR":4.0899e-5,"MEAN_MOTION_DOT":8.38e-6,"MEAN_MOTION_DDOT":0},{"OBJECT_NAME":"STARLINK-30252","OBJECT_ID":"2023-119F","EPOCH":"2026-03-30T00:48:39.602016","MEAN_MOTION":15.27559726,"ECCENTRICITY":0.0001345,"INCLINATION":42.9995,"RA_OF_ASC_NODE":311.741,"ARG_OF_PERICENTER":276.8178,"MEAN_ANOMALY":83.252,"EPHEMERIS_TYPE":0,"CLASSIFICATION_TYPE":"U","NORAD_CAT_ID":57607,"ELEMENT_SET_NO":999,"REV_AT_EPOCH":14637,"BSTAR":-5.7177e-5,"MEAN_MOTION_DOT":-1.834e-5,"MEAN_MOTION_DDOT":0},{"OBJECT_NAME":"STARLINK-30258","OBJECT_ID":"2023-119G","EPOCH":"2026-03-30T00:55:27.638112","MEAN_MOTION":15.27559149,"ECCENTRICITY":6.72e-5,"INCLINATION":43.0016,"RA_OF_ASC_NODE":327.0583,"ARG_OF_PERICENTER":326.7307,"MEAN_ANOMALY":33.3502,"EPHEMERIS_TYPE":0,"CLASSIFICATION_TYPE":"U","NORAD_CAT_ID":57608,"ELEMENT_SET_NO":999,"REV_AT_EPOCH":14619,"BSTAR":-0.00019411,"MEAN_MOTION_DOT":-5.596e-5,"MEAN_MOTION_DDOT":0},{"OBJECT_NAME":"STARLINK-30174","OBJECT_ID":"2023-119H","EPOCH":"2026-03-29T21:56:34.656000","MEAN_MOTION":15.26740741,"ECCENTRICITY":0.0001704,"INCLINATION":43.0064,"RA_OF_ASC_NODE":327.0035,"ARG_OF_PERICENTER":297.4285,"MEAN_ANOMALY":62.6393,"EPHEMERIS_TYPE":0,"CLASSIFICATION_TYPE":"U","NORAD_CAT_ID":57609,"ELEMENT_SET_NO":999,"REV_AT_EPOCH":14618,"BSTAR":-0.00014147,"MEAN_MOTION_DOT":-4.053e-5,"MEAN_MOTION_DDOT":0},{"OBJECT_NAME":"STARLINK-30248","OBJECT_ID":"2023-119J","EPOCH":"2026-03-30T01:02:38.422464","MEAN_MOTION":15.27583011,"ECCENTRICITY":0.0001708,"INCLINATION":43.0032,"RA_OF_ASC_NODE":326.2499,"ARG_OF_PERICENTER":265.6236,"MEAN_ANOMALY":94.442,"EPHEMERIS_TYPE":0,"CLASSIFICATION_TYPE":"U","NORAD_CAT_ID":57610,"ELEMENT_SET_NO":999,"REV_AT_EPOCH":14620,"BSTAR":7.2327e-5,"MEAN_MOTION_DOT":1.729e-5,"MEAN_MOTION_DDOT":0},{"OBJECT_NAME":"STARLINK-30052","OBJECT_ID":"2023-119K","EPOCH":"2026-03-30T00:52:04.430496","MEAN_MOTION":15.26745435,"ECCENTRICITY":0.0002693,"INCLINATION":43.0058,"RA_OF_ASC_NODE":326.1932,"ARG_OF_PERICENTER":262.8273,"MEAN_ANOMALY":97.2272,"EPHEMERIS_TYPE":0,"CLASSIFICATION_TYPE":"U","NORAD_CAT_ID":57611,"ELEMENT_SET_NO":999,"REV_AT_EPOCH":14618,"BSTAR":-2.1825e-5,"MEAN_MOTION_DOT":-8.46e-6,"MEAN_MOTION_DDOT":0},{"OBJECT_NAME":"STARLINK-30245","OBJECT_ID":"2023-119L","EPOCH":"2026-03-29T23:30:19.951776","MEAN_MOTION":15.2758335,"ECCENTRICITY":0.0001617,"INCLINATION":43.0052,"RA_OF_ASC_NODE":326.6264,"ARG_OF_PERICENTER":258.452,"MEAN_ANOMALY":101.615,"EPHEMERIS_TYPE":0,"CLASSIFICATION_TYPE":"U","NORAD_CAT_ID":57612,"ELEMENT_SET_NO":999,"REV_AT_EPOCH":14619,"BSTAR":0.00013476,"MEAN_MOTION_DOT":3.448e-5,"MEAN_MOTION_DDOT":0},{"OBJECT_NAME":"STARLINK-30041","OBJECT_ID":"2023-119M","EPOCH":"2026-03-30T01:19:17.813856","MEAN_MOTION":15.27563582,"ECCENTRICITY":0.0001644,"INCLINATION":43.0052,"RA_OF_ASC_NODE":326.3345,"ARG_OF_PERICENTER":270.5947,"MEAN_ANOMALY":89.4716,"EPHEMERIS_TYPE":0,"CLASSIFICATION_TYPE":"U","NORAD_CAT_ID":57613,"ELEMENT_SET_NO":999,"REV_AT_EPOCH":14620,"BSTAR":-0.00018541,"MEAN_MOTION_DOT":-5.358e-5,"MEAN_MOTION_DDOT":0}]
